HIMAWARI-8              
1 40267U 14060A   23290.56352541 -.00000261  00000+0  00000+0 0  9995
2 40267   0.0180 198.7340 0000578   7.2584 163.3620  1.00270977 33109
